NORAD_CAT_ID,OBJECT_NAME,OBJECT_TYPE,EPOCH,MEAN_MOTION,ECCENTRICITY,INCLINATION,RA_OF_ASC_NODE,ARG_OF_PERICENTER,MEAN_ANOMALY,BSTAR,MEAN_MOTION_DOT,MEAN_MOTION_DDOT,TLE_LINE0,TLE_LINE1,TLE_LINE2,SEMIMAJOR_AXIS,PERIOD,APOGEE,PERIGEE,DECAYED
54800.0,STARLINK-5428,PAYLOAD,2024-05-28 05:18:19,15.08851966,0.0001536,53.2179,73.9602,115.9568,244.1583,-5.565e-05,-1.174e-05,0.0,0 STARLINK-5428,1 54800U 22175AU  24149.22105453 -.00001174  00000-0 -55650-4 0  9996,2 54800  53.2179  73.9602 0001536 115.9568 244.1583 15.08851966 79702,6917.844,95.437,540.771,538.646,0.0
54800.0,STARLINK-5428,PAYLOAD,2024-05-28 11:39:51,15.08846415,0.000136,53.2172,72.7707,89.4607,270.6541,0.00013849,1.917e-05,0.0,0 STARLINK-5428,1 54800U 22175AU  24149.48601468  .00001917  00000-0  13849-3 0  9997,2 54800  53.2172  72.7707 0001360  89.4607 270.6541 15.08846415 81908,6917.861,95.437,540.667,538.785,0.0
54800.0,STARLINK-5428,PAYLOAD,2024-05-29 00:22:56,15.08847599,0.0001366,53.2167,70.39,100.105,260.0096,5.6183e-05,6.07e-06,0.0,0 STARLINK-5428,1 54800U 22175AU  24150.01593249  .00000607  00000-0  56183-4 0  9999,2 54800  53.2167  70.3900 0001366 100.1050 260.0096 15.08847599 81980,6917.857,95.437,540.667,538.777,0.0
54800.0,STARLINK-5428,PAYLOAD,2024-05-29 17:52:11,15.08841001,0.0001326,53.2162,67.1197,92.6591,267.4553,-5.3448e-05,-1.138e-05,0.0,0 STARLINK-5428,1 54800U 22175AU  24150.74457558 -.00001138  00000-0 -53448-4 0  9994,2 54800  53.2162  67.1197 0001326  92.6591 267.4553 15.08841001 79931,6917.877,95.437,540.66,538.825,0.0
54800.0,STARLINK-5428,PAYLOAD,2024-05-29 22:38:21,15.0883631,0.0001226,53.2159,66.2259,92.6063,267.507,-3.9357e-05,-9.14e-06,0.0,0 STARLINK-5428,1 54800U 22175AU  24150.94329984 -.00000914  00000-0 -39357-4 0  9991,2 54800  53.2159  66.2259 0001226  92.6063 267.5070 15.08836310 82126,6917.892,95.438,540.605,538.909,0.0
54800.0,STARLINK-5428,PAYLOAD,2024-05-30 03:24:30,15.08839025,0.0001222,53.2175,65.3341,87.1035,273.0097,2.7959e-05,1.57e-06,0.0,0 STARLINK-5428,1 54800U 22175AU  24151.14202284  .00000157  00000-0  27959-4 0  9999,2 54800  53.2175  65.3341 0001222  87.1035 273.0097 15.08839025 79998,6917.883,95.438,540.594,538.903,0.0
54800.0,STARLINK-5428,PAYLOAD,2024-05-30 14:32:12,15.08841892,0.0001371,53.2186,63.2532,74.6005,285.5138,4.3474e-05,4.04e-06,0.0,0 STARLINK-5428,1 54800U 22175AU  24151.60570164  .00000404  00000-0  43474-4 0  9990,2 54800  53.2186  63.2532 0001371  74.6005 285.5138 15.08841892 82221,6917.875,95.437,540.688,538.791,0.0
54800.0,STARLINK-5428,PAYLOAD,2024-05-30 22:29:07,15.08853839,0.0001345,53.2188,61.7661,77.7385,282.3758,0.00011567,1.554e-05,0.0,0 STARLINK-5428,1 54800U 22175AU  24151.93689192  .00001554  00000-0  11567-3 0  9992,2 54800  53.2188  61.7661 0001345  77.7385 282.3758 15.08853839 82277,6917.838,95.437,540.634,538.773,0.0
54800.0,STARLINK-5428,PAYLOAD,2024-05-31 03:15:16,15.08855188,0.0001441,53.218,60.8735,78.018,282.0973,0.00039464,6.001e-05,0.0,0 STARLINK-5428,1 54800U 22175AU  24152.13561324  .00006001  00000-0  39464-3 0  9999,2 54800  53.2180  60.8735 0001441  78.0180 282.0973 15.08855188 80144,6917.834,95.437,540.696,538.702,0.0
54800.0,STARLINK-5428,PAYLOAD,2024-05-31 17:33:45,15.08845643,0.0001852,53.2186,58.1999,81.3151,278.8051,0.00033361,5.026e-05,0.0,0 STARLINK-5428,1 54800U 22175AU  24152.73177945  .00005026  00000-0  33361-3 0  9993,2 54800  53.2186  58.1999 0001852  81.3151 278.8051 15.08845643 80238,6917.863,95.437,541.009,538.447,0.0
54800.0,STARLINK-5428,PAYLOAD,2024-05-31 22:19:55,15.08844506,0.0001844,53.2173,57.307,81.7043,278.4158,0.00022937,3.365e-05,0.0,0 STARLINK-5428,1 54800U 22175AU  24152.93049868  .00003365  00000-0  22937-3 0  9998,2 54800  53.2173  57.3070 0001844  81.7043 278.4158 15.08844506 82424,6917.867,95.437,541.007,538.456,0.0
54800.0,STARLINK-5428,PAYLOAD,2024-06-01 11:02:59,15.08843947,0.0001421,53.2161,54.9276,87.4586,272.6569,0.00011669,1.57e-05,0.0,0 STARLINK-5428,1 54800U 22175AU  24153.46041619  .00001570  00000-0  11669-3 0  9999,2 54800  53.2161  54.9276 0001421  87.4586 272.6569 15.08843947 82507,6917.868,95.437,540.716,538.75,0.0
54800.0,STARLINK-5428,PAYLOAD,2024-06-01 20:35:19,15.08838599,0.000173,53.2177,53.1433,95.1592,264.9597,-3.177e-05,-7.94e-06,0.0,0 STARLINK-5428,1 54800U 22175AU  24153.85786068 -.00000794  00000-0 -31770-4 0  9991,2 54800  53.2177  53.1433 0001730  95.1592 264.9597 15.08838599 80405,6917.885,95.438,540.946,538.553,0.0
54800.0,STARLINK-5428,PAYLOAD,2024-06-02 02:56:51,15.08841662,0.0001597,53.2184,51.952,102.8544,257.2627,-4.1438e-05,-9.47e-06,0.0,0 STARLINK-5428,1 54800U 22175AU  24154.12281895 -.00000947  00000-0 -41438-4 0  9992,2 54800  53.2184  51.9520 0001597 102.8544 257.2627 15.08841662 82608,6917.875,95.437,540.845,538.636,0.0
54800.0,STARLINK-5428,PAYLOAD,2024-06-03 02:47:38,15.08839236,0.0001801,53.2185,47.4937,96.5249,263.5948,6.5758e-05,7.59e-06,0.0,0 STARLINK-5428,1 54800U 22175AU  24155.11642254  .00000759  00000-0  65758-4 0  9992,2 54800  53.2185  47.4937 0001801  96.5249 263.5948 15.08839236 80596,6917.883,95.438,540.994,538.502,0.0
54800.0,STARLINK-5428,PAYLOAD,2024-06-04 03:20:15,15.08845745,0.0001248,53.2217,42.9161,128.6749,29.2907,0.00015058,2.11e-05,0.0,0 STARLINK-5428,1 54800U 22175AU  24156.13906426  .00002110  00000-0  15058-3 0  9999,2 54800  53.2217  42.9161 0001248 128.6749  29.2907 15.08845745 80750,6917.863,95.437,540.591,538.864,0.0
54800.0,STARLINK-5428,PAYLOAD,2024-06-04 08:59:58,15.08842787,0.0001532,53.2182,41.8435,94.5614,265.5554,0.00011209,1.497e-05,0.0,0 STARLINK-5428,1 54800U 22175AU  24156.37498183  .00001497  00000-0  11209-3 0  9992,2 54800  53.2182  41.8435 0001532  94.5614 265.5554 15.08842787 80780,6917.872,95.437,540.797,538.677,0.0
54800.0,STARLINK-5428,PAYLOAD,2024-06-04 23:18:26,15.08842144,0.0001691,53.2201,39.1677,84.0689,276.0496,6.5978e-05,7.62e-06,0.0,0 STARLINK-5428,1 54800U 22175AU  24156.97114258  .00000762  00000-0  65978-4 0  9993,2 54800  53.2201  39.1677 0001691  84.0689 276.0496 15.08842144 83032,6917.874,95.437,540.909,538.569,0.0
54800.0,STARLINK-5428,PAYLOAD,2024-06-05 08:50:45,15.08835124,0.0001315,53.2171,37.3833,82.3276,277.7865,-0.00013615,-2.454e-05,0.0,0 STARLINK-5428,1 54800U 22175AU  24157.36858438 -.00002454  00000-0 -13615-3 0  9994,2 54800  53.2171  37.3833 0001315  82.3276 277.7865 15.08835124 80943,6917.895,95.438,540.67,538.851,0.0
54800.0,STARLINK-5428,PAYLOAD,2024-06-05 15:12:18,15.0883375,0.0001114,53.2171,36.196,90.6108,269.5012,3.2284e-05,2.26e-06,0.0,0 STARLINK-5428,1 54800U 22175AU  24157.63355062  .00000226  00000-0  32284-4 0  9996,2 54800  53.2171  36.1960 0001114  90.6108 269.5012 15.08833750 83134,6917.899,95.438,540.535,538.994,0.0
54800.0,STARLINK-5428,PAYLOAD,2024-06-05 23:09:14,15.08841385,9.65e-05,53.2194,34.7059,67.8902,292.2192,0.00011347,1.519e-05,0.0,0 STARLINK-5428,1 54800U 22175AU  24157.96474630  .00001519  00000-0  11347-3 0  9997,2 54800  53.2194  34.7059 0000965  67.8902 292.2192 15.08841385 83183,6917.876,95.437,540.409,539.074,0.0
54800.0,STARLINK-5428,PAYLOAD,2024-06-06 08:41:33,15.08839662,0.0001238,53.217,32.9224,91.7048,268.4086,9.6479e-05,1.248e-05,0.0,0 STARLINK-5428,1 54800U 22175AU  24158.36218841  .00001248  00000-0  96479-4 0  9991,2 54800  53.2170  32.9224 0001238  91.7048 268.4086 15.08839662 83241,6917.881,95.438,540.603,538.89,0.0
54800.0,STARLINK-5428,PAYLOAD,2024-06-07 00:35:24,15.08840528,0.0001728,53.2183,29.948,80.5332,279.5855,0.00020207,2.929e-05,0.0,0 STARLINK-5428,1 54800U 22175AU  24159.02458588  .00002929  00000-0  20207-3 0  9991,2 54800  53.2183  29.9480 0001728  80.5332 279.5855 15.08840528 81193,6917.879,95.438,540.939,538.548,0.0
54800.0,STARLINK-5428,PAYLOAD,2024-06-07 21:15:25,15.08822562,3.85e-05,53.2215,26.0816,143.1802,216.9216,0.0002753,4.095e-05,0.0,0 STARLINK-5428,1 54800U 22175AU  24159.88571750  .00004095  00000-0  27530-3 0  9994,2 54800  53.2215  26.0816 0000385 143.1802 216.9216 15.08822562 81325,6917.934,95.439,540.065,539.532,0.0
54800.0,STARLINK-5428,PAYLOAD,2024-06-07 22:50:48,15.08841183,7.9e-05,53.2197,25.7865,0.6395,359.4598,1.0792e-05,-1.16e-06,0.0,0 STARLINK-5428,1 54800U 22175AU  24159.95194789 -.00000116  00000-0  10792-4 0  9999,2 54800  53.2197  25.7865 0000790   0.6395 359.4598 15.08841183 83483,6917.877,95.437,540.288,539.195,0.0
54800.0,STARLINK-5428,PAYLOAD,2024-06-08 14:44:39,15.08843539,0.000138,53.217,22.8142,83.0213,277.0936,7.1422e-05,8.49e-06,0.0,0 STARLINK-5428,1 54800U 22175AU  24160.61434945  .00000849  00000-0  71422-4 0  9994,2 54800  53.2170  22.8142 0001380  83.0213 277.0936 15.08843539 83589,6917.87,95.437,540.689,538.78,0.0
54800.0,STARLINK-5428,PAYLOAD,2024-06-08 21:06:12,15.08845972,0.0001298,53.2152,21.6232,89.326,270.7881,0.00010066,1.315e-05,0.0,0 STARLINK-5428,1 54800U 22175AU  24160.87930589  .00001315  00000-0  10066-3 0  9992,2 54800  53.2152  21.6232 0001298  89.3260 270.7881 15.08845972 83622,6917.862,95.437,540.625,538.829,0.0
54800.0,STARLINK-5428,PAYLOAD,2024-06-08 22:41:35,15.08844834,0.0001281,53.2157,21.3273,86.0795,274.0344,0.00022396,3.279e-05,0.0,0 STARLINK-5428,1 54800U 22175AU  24160.94554688  .00003279  00000-0  22396-3 0  9992,2 54800  53.2157  21.3273 0001281  86.0795 274.0344 15.08844834 81487,6917.866,95.437,540.617,538.844,0.0
54800.0,STARLINK-5428,PAYLOAD,2024-06-09 20:56:59,15.08839314,0.0001456,53.2169,17.1632,90.5848,269.5311,5.395e-05,5.71e-06,0.0,0 STARLINK-5428,1 54800U 22175AU  24161.87291265  .00000571  00000-0  53950-4 0  9997,2 54800  53.2169  17.1632 0001456  90.5848 269.5311 15.08839314 81621,6917.882,95.438,540.755,538.74,0.0
54800.0,STARLINK-5428,PAYLOAD,2024-06-09 22:32:21,15.08864304,8.6e-05,53.2188,16.8646,110.3613,249.7472,-0.00062107,-0.00010165,0.0,0 STARLINK-5428,1 54800U 22175AU  24161.93913894 -.00010165  00000-0 -62107-3 0  9998,2 54800  53.2188  16.8646 0000860 110.3613 249.7472 15.08864304 81638,6917.806,95.436,540.266,539.076,0.0
